GPS BIIF-7  (PRN 09)    
1 40105U 14045A   26095.25809524  .00000002  00000+0  00000+0 0  9991
2 40105  55.3047  91.3685 0031400 119.7721 240.5476  2.00553703 84616
GPS BIIF-8  (PRN 03)    
1 40294U 14068A   26095.13374736 -.00000083  00000+0  00000+0 0  9994
2 40294  56.9408  33.7696 0064300  68.3893 292.2824  2.00571865 83742
GPS BIIF-9  (PRN 26)    
1 40534U 15013A   26095.76537834  .00000006  00000+0  00000+0 0  9995
2 40534  53.1789 207.1723 0108822  39.9432 320.8559  2.00555754 80377
GPS BIIF-10 (PRN 08)    
1 40730U 15033A   26095.42667885 -.00000014  00000+0  00000+0 0  9998
2 40730  54.0409 270.0842 0114939  29.5944 331.0235  2.00560101 78536
GPS BIIF-11 (PRN 10)    
1 41019U 15062A   26094.98642567 -.00000084  00000+0  00000+0 0  9998
2 41019  56.9136  33.6315 0111285 231.5930 127.3950  2.00567188 76365
GPS BIIF-12 (PRN 32)    
1 41328U 16007A   26095.07316090  .00000003  00000+0  00000+0 0  9991
2 41328  55.4776  92.3566 0095997 246.7403 112.2545  2.00555323 74376
GPS BIII-1  (PRN 04)    
1 43873U 18109A   26095.87946368  .00000009  00000+0  00000+0 0  9994
2 43873  55.6373  95.0375 0038017 198.9014 275.9572  2.00558485 53626
GPS BIII-2  (PRN 18)    
1 44506U 19056A   26095.09796293 -.00000090  00000+0  00000+0 0  9995
2 44506  55.6701 334.0490 0058764 197.6004 334.4346  2.00569081 48601
GPS BIII-3  (PRN 23)    
1 45854U 20041A   26095.69198816 -.00000083  00000+0  00000+0 0  9993
2 45854  56.6261  31.7566 0061800 205.1302 336.9671  2.00560346 42580
GPS BIII-4  (PRN 14)    
1 46826U 20078A   26095.71184957  .00000006  00000+0  00000+0 0  9991
2 46826  53.9938 213.7167 0069971 205.1796 325.3931  2.00565249 40052
GPS BIII-5  (PRN 11)    
1 48859U 21054A   26087.05663564 -.00000088  00000+0  00000+0 0  9999
2 48859  55.2101 335.7223 0023817 231.1961 354.6747  2.00573996 35127
GPS BIII-6  (PRN 28)    
1 55268U 23009A   26087.18378093  .00000000  00000+0  00000+0 0  9990
2 55268  55.1104 151.7031 0005380 326.6502  28.0595  2.00547447 23616
GPS BIII-7  (PRN 01)    
1 62339U 24242A   26094.30669673 -.00000095  00000+0  00000+0 0  9991
2 62339  54.8790 337.1781 0016583   1.2127 180.4973  2.00570430  9770
GPS BIII-8  (PRN 21)    
1 64202U 25116A   26095.80033552 -.00000082  00000+0  00000+0 0  9996
2 64202  55.1886  34.0435 0008992 332.1499  31.6602  2.00551286  6426
GPS BIII-9  (PRN 20)    
1 67588U 26017A   26094.40943240  .00000001  00000+0  00000+0 0  9996
2 67588  55.0405  91.7145 0024436 250.4586 109.2865  2.00553521430136
